start=new Date('2023-01-27T00:00:00.000Z').valueOf();
sats=[{"ELEMENT_SET_NO":"999","REF_FRAME":"TEME","TLE_LINE2":"2 46173  53.0554  26.9561 0001658  89.7777 270.3402 15.06407510134486","ECCENTRICITY":"0.00016580","FILE":"3761951","INCLINATION":"53.0554","MEAN_ANOMALY":"270.3402","ARG_OF_PERICENTER":"89.7777","PERIOD":"95.592","LAUNCH_DATE":"2020-08-18","NORAD_CAT_ID":"46173","EPOCH":"2023-01-26T07:40:57.963648","OBJECT_ID":"2020-057BJ","MEAN_MOTION_DDOT":"0.0000000000000","CENTER_NAME":"EARTH","SITE":"AFETR","OBJECT_TYPE":"PAYLOAD","OBJECT_NAME":"STARLINK-1640","COUNTRY_CODE":"US","CLASSIFICATION_TYPE":"U","SEMIMAJOR_AXIS":"6925.326","REV_AT_EPOCH":"13448","MEAN_MOTION":"15.06407510","MEAN_MOTION_DOT":"0.00003534","MEAN_ELEMENT_THEORY":"SGP4","GP_ID":"223753956","RCS_SIZE":"LARGE","EPHEMERIS_TYPE":"0","BSTAR":"0.00025597000000","RA_OF_ASC_NODE":"26.9561","DECAY_DATE":null,"PERIAPSIS":"546.042","TIME_SYSTEM":"UTC","TLE_LINE1":"1 46173U 20057BJ  23026.32011532  .00003534  00000-0  25597-3 0  9991","APOAPSIS":"548.339"},{"FILE":"3761951","INCLINATION":"53.0543","TLE_LINE2":"2 46174  53.0543  26.6225 0001570  88.2040 271.9129 15.06406678134497","ECCENTRICITY":"0.00015700","REF_FRAME":"TEME","PERIOD":"95.592","ARG_OF_PERICENTER":"88.2040","MEAN_ANOMALY":"271.9129","ELEMENT_SET_NO":"999","MEAN_MOTION_DDOT":"0.0000000000000","OBJECT_ID":"2020-057BK","CENTER_NAME":"EARTH","EPOCH":"2023-01-26T09:27:07.708608","SITE":"AFETR","NORAD_CAT_ID":"46174","LAUNCH_DATE":"2020-08-18","REV_AT_EPOCH":"13449","SEMIMAJOR_AXIS":"6925.328","MEAN_MOTION":"15.06406678","OBJECT_NAME":"STARLINK-1641","OBJECT_TYPE":"PAYLOAD","COUNTRY_CODE":"US","CLASSIFICATION_TYPE":"U","PERIAPSIS":"546.106","DECAY_DATE":null,"RA_OF_ASC_NODE":"26.6225","BSTAR":"0.00062424000000","APOAPSIS":"548.280","TIME_SYSTEM":"UTC","TLE_LINE1":"1 46174U 20057BK  23026.39383922  .00009030  00000-0  62424-3 0  9991","MEAN_ELEMENT_THEORY":"SGP4","MEAN_MOTION_DOT":"0.00009030","EPHEMERIS_TYPE":"0","RCS_SIZE":"LARGE","GP_ID":"223753227"},{"ELEMENT_SET_NO":"999","MEAN_ANOMALY":"265.3125","ARG_OF_PERICENTER":"94.8021","PERIOD":"95.592","TLE_LINE2":"2 46325  53.0528  43.0666 0001373  94.8021 265.3125 15.06400496133936","ECCENTRICITY":"0.00013730","REF_FRAME":"TEME","INCLINATION":"53.0528","FILE":"3761951","LAUNCH_DATE":"2020-09-03","NORAD_CAT_ID":"46325","SITE":"AFETR","EPOCH":"2023-01-26T01:46:00.984000","CENTER_NAME":"EARTH","OBJECT_ID":"2020-062A","MEAN_MOTION_DDOT":"0.0000000000000","COUNTRY_CODE":"US","CLASSIFICATION_TYPE":"U","OBJECT_TYPE":"PAYLOAD","OBJECT_NAME":"STARLINK-1734","MEAN_MOTION":"15.06400496","SEMIMAJOR_AXIS":"6925.347","REV_AT_EPOCH":"13393","RCS_SIZE":"LARGE","GP_ID":"223754238","EPHEMERIS_TYPE":"0","MEAN_MOTION_DOT":"0.00003724","MEAN_ELEMENT_THEORY":"SGP4","TLE_LINE1":"1 46325U 20062A   23026.07362250  .00003724  00000-0  26876-3 0  9996","TIME_SYSTEM":"UTC","APOAPSIS":"548.163","BSTAR":"0.00026876000000","DECAY_DATE":null,"PERIAPSIS":"546.261","RA_OF_ASC_NODE":"43.0666"},{"INCLINATION":"53.0534","FILE":"3761951","ECCENTRICITY":"0.00010610","TLE_LINE2":"2 46326  53.0534  86.5282 0001061  93.3974 266.7137 15.06402406132755","REF_FRAME":"TEME","ARG_OF_PERICENTER":"93.3974","PERIOD":"95.592","MEAN_ANOMALY":"266.7137","ELEMENT_SET_NO":"999","CENTER_NAME":"EARTH","MEAN_MOTION_DDOT":"0.0000000000000","OBJECT_ID":"2020-062B","EPOCH":"2023-01-26T11:15:58.108320","SITE":"AFETR","NORAD_CAT_ID":"46326","LAUNCH_DATE":"2020-09-03","REV_AT_EPOCH":"13275","SEMIMAJOR_AXIS":"6925.341","MEAN_MOTION":"15.06402406","OBJECT_NAME":"STARLINK-1654","OBJECT_TYPE":"PAYLOAD","COUNTRY_CODE":"US","CLASSIFICATION_TYPE":"U","RA_OF_ASC_NODE":"86.5282","DECAY_DATE":null,"PERIAPSIS":"546.471","BSTAR":"0.00018839000000","APOAPSIS":"547.941","TLE_LINE1":"1 46326U 20062B   23026.46942255  .00002526  00000-0  18839-3 0  9998","TIME_SYSTEM":"UTC","MEAN_ELEMENT_THEORY":"SGP4","MEAN_MOTION_DOT":"0.00002526","EPHEMERIS_TYPE":"0","GP_ID":"223754466","RCS_SIZE":"LARGE"},{"MEAN_MOTION_DDOT":"0.0000000000000","OBJECT_ID":"2020-062C","CENTER_NAME":"EARTH","EPOCH":"2023-01-26T10:12:14.215392","SITE":"AFETR","NORAD_CAT_ID":"46327","LAUNCH_DATE":"2020-09-03","INCLINATION":"53.0551","FILE":"3761951","TLE_LINE2":"2 46327  53.0551  86.4799 0001669 102.1112 258.0064 15.06400321132740","ECCENTRICITY":"0.00016690","REF_FRAME":"TEME","PERIOD":"95.592","ARG_OF_PERICENTER":"102.1112","MEAN_ANOMALY":"258.0064","ELEMENT_SET_NO":"999","DECAY_DATE":null,"RA_OF_ASC_NODE":"86.4799","PERIAPSIS":"546.057","BSTAR":"0.00013188000000","APOAPSIS":"548.368","TIME_SYSTEM":"UTC","TLE_LINE1":"1 46327U 20062C   23026.42516453  .00001683  00000-0  13188-3 0  9997","MEAN_ELEMENT_THEORY":"SGP4","MEAN_MOTION_DOT":"0.00001683","EPHEMERIS_TYPE":"0","GP_ID":"223752738","RCS_SIZE":"LARGE","REV_AT_EPOCH":"13274","SEMIMAJOR_AXIS":"6925.348","MEAN_MOTION":"15.06400321","OBJECT_NAME":"STARLINK-1673","OBJECT_TYPE":"PAYLOAD","COUNTRY_CODE":"US","CLASSIFICATION_TYPE":"U"},{"ELEMENT_SET_NO":"999","PERIOD":"95.592","ARG_OF_PERICENTER":"79.9587","MEAN_ANOMALY":"280.1580","FILE":"3762133","INCLINATION":"53.0532","ECCENTRICITY":"0.00015790","TLE_LINE2":"2 46328  53.0532  64.7937 0001579  79.9587 280.1580 15.06402701133250","REF_FRAME":"TEME","NORAD_CAT_ID":"46328","LAUNCH_DATE":"2020-09-03","SITE":"AFETR","OBJECT_ID":"2020-062D","MEAN_MOTION_DDOT":"0.0000000000000","CENTER_NAME":"EARTH","EPOCH":"2023-01-26T19:16:16.986432","COUNTRY_CODE":"US","CLASSIFICATION_TYPE":"U","OBJECT_NAME":"STARLINK-1686","OBJECT_TYPE":"PAYLOAD","MEAN_MOTION":"15.06402701","REV_AT_EPOCH":"13325","SEMIMAJOR_AXIS":"6925.340","EPHEMERIS_TYPE":"0","GP_ID":"223764531","RCS_SIZE":"LARGE","MEAN_ELEMENT_THEORY":"SGP4","MEAN_MOTION_DOT":"0.00002061","APOAPSIS":"548.299","TIME_SYSTEM":"UTC","TLE_LINE1":"1 46328U 20062D   23026.80297438  .00002061  00000-0  15724-3 0  9998","RA_OF_ASC_NODE":"64.7937","DECAY_DATE":null,"PERIAPSIS":"546.112","BSTAR":"0.00015724000000"},{"APOAPSIS":"548.093","TIME_SYSTEM":"UTC","TLE_LINE1":"1 46329U 20062E   23026.37172176  .00002820  00000-0  20812-3 0  9999","DECAY_DATE":null,"RA_OF_ASC_NODE":"66.7329","PERIAPSIS":"546.321","BSTAR":"0.00020812000000","EPHEMERIS_TYPE":"0","GP_ID":"223753740","RCS_SIZE":"LARGE","MEAN_ELEMENT_THEORY":"SGP4","MEAN_MOTION_DOT":"0.00002820","MEAN_MOTION":"15.06402101","REV_AT_EPOCH":"13301","SEMIMAJOR_AXIS":"6925.342","CLASSIFICATION_TYPE":"U","COUNTRY_CODE":"US","OBJECT_NAME":"STARLINK-1695","OBJECT_TYPE":"PAYLOAD","SITE":"AFETR","MEAN_MOTION_DDOT":"0.0000000000000","OBJECT_ID":"2020-062E","CENTER_NAME":"EARTH","EPOCH":"2023-01-26T08:55:16.760064","NORAD_CAT_ID":"46329","LAUNCH_DATE":"2020-09-03","ARG_OF_PERICENTER":"99.1689","PERIOD":"95.592","MEAN_ANOMALY":"260.9445","INCLINATION":"53.0527","FILE":"3761951","REF_FRAME":"TEME","TLE_LINE2":"2 46329  53.0527  66.7329 0001279  99.1689 260.9445 15.06402101133010","ECCENTRICITY":"0.00012790","ELEMENT_SET_NO":"999"},{"MEAN_ELEMENT_THEORY":"SGP4","MEAN_MOTION_DOT":"0.00002069","EPHEMERIS_TYPE":"0","RCS_SIZE":"LARGE","GP_ID":"223764976","DECAY_DATE":null,"PERIAPSIS":"546.141","RA_OF_ASC_NODE":"64.6929","BSTAR":"0.00015772000000","APOAPSIS":"548.271","TIME_SYSTEM":"UTC","TLE_LINE1":"1 46330U 20062F   23026.82509047  .00002069  00000-0  15772-3 0  9996","OBJECT_NAME":"STARLINK-1710","OBJECT_TYPE":"PAYLOAD","COUNTRY_CODE":"US","CLASSIFICATION_TYPE":"U","REV_AT_EPOCH":"13309","SEMIMAJOR_AXIS":"6925.341","MEAN_MOTION":"15.06402548","NORAD_CAT_ID":"46330","LAUNCH_DATE":"2020-09-03","MEAN_MOTION_DDOT":"0.0000000000000","OBJECT_ID":"2020-062F","CENTER_NAME":"EARTH","EPOCH":"2023-01-26T19:48:07.816608","SITE":"AFETR","ELEMENT_SET_NO":"999","FILE":"3762144","INCLINATION":"53.0541","TLE_LINE2":"2 46330  53.0541  64.6929 0001538  83.1532 276.9632 15.06402548133097","REF_FRAME":"TEME","ECCENTRICITY":"0.00015380","PERIOD":"95.592","ARG_OF_PERICENTER":"83.1532","MEAN_ANOMALY":"276.9632"},{"INCLINATION":"53.0569","FILE":"3761951","ECCENTRICITY":"0.00016820","TLE_LINE2":"2 46331  53.0569  86.0184 0001682 101.5050 258.6127 15.06407575132763","REF_FRAME":"TEME","PERIOD":"95.592","ARG_OF_PERICENTER":"101.5050","MEAN_ANOMALY":"258.6127","ELEMENT_SET_NO":"999","CENTER_NAME":"EARTH","OBJECT_ID":"2020-062G","MEAN_MOTION_DDOT":"0.0000000000000","EPOCH":"2023-01-26T12:40:51.248352","SITE":"AFETR","NORAD_CAT_ID":"46331","LAUNCH_DATE":"2020-09-03","REV_AT_EPOCH":"13276","SEMIMAJOR_AXIS":"6925.325","MEAN_MOTION":"15.06407575","OBJECT_NAME":"STARLINK-1719","OBJECT_TYPE":"PAYLOAD","COUNTRY_CODE":"US","CLASSIFICATION_TYPE":"U","RA_OF_ASC_NODE":"86.0184","DECAY_DATE":null,"PERIAPSIS":"546.026","BSTAR":"0.00026275000000","APOAPSIS":"548.355","TLE_LINE1":"1 46331U 20062G   23026.52837093  .00003635  00000-0  26275-3 0  9999","TIME_SYSTEM":"UTC","MEAN_ELEMENT_THEORY":"SGP4","MEAN_MOTION_DOT":"0.00003635","EPHEMERIS_TYPE":"0","RCS_SIZE":"LARGE","GP_ID":"223753239"},{"NORAD_CAT_ID":"46332","LAUNCH_DATE":"2020-09-03","SITE":"AFETR","MEAN_MOTION_DDOT":"0.0000000000000","OBJECT_ID":"2020-062H","CENTER_NAME":"EARTH","EPOCH":"2023-01-26T20:35:27.318912","ELEMENT_SET_NO":"999","PERIOD":"95.491","ARG_OF_PERICENTER":"61.5136","MEAN_ANOMALY":"298.6156","FILE":"3762147","INCLINATION":"53.0522","REF_FRAME":"TEME","TLE_LINE2":"2 46332  53.0522  84.4097 0003006  61.5136 298.6156 15.07991564132998","ECCENTRICITY":"0.00030060","EPHEMERIS_TYPE":"0","RCS_SIZE":"LARGE","GP_ID":"223765026","MEAN_ELEMENT_THEORY":"SGP4","MEAN_MOTION_DOT":"0.00029597","APOAPSIS":"544.420","TIME_SYSTEM":"UTC","TLE_LINE1":"1 46332U 20062H   23026.85795508  .00029597  00000-0  19133-2 0  9999","DECAY_DATE":null,"PERIAPSIS":"540.260","RA_OF_ASC_NODE":"84.4097","BSTAR":"0.00191330000000","COUNTRY_CODE":"US","CLASSIFICATION_TYPE":"U","OBJECT_NAME":"STARLINK-1721","OBJECT_TYPE":"PAYLOAD","MEAN_MOTION":"15.07991564","REV_AT_EPOCH":"13299","SEMIMAJOR_AXIS":"6920.475"}];
